[{"OBJECT_NAME":"STARLINK-3651","OBJECT_ID":"2022-025AF","EPOCH":"2026-03-09T22:28:28.956000","MEAN_MOTION":15.08833367,"ECCENTRICITY":0.00016657,"INCLINATION":53.2193,"RA_OF_ASC_NODE":38.0165,"ARG_OF_PERICENTER":106.5731,"MEAN_ANOMALY":253.5445,"EPHEMERIS_TYPE":0,"CLASSIFICATION_TYPE":"U","NORAD_CAT_ID":51985,"ELEMENT_SET_NO":999,"REV_AT_EPOCH":22109,"BSTAR":1.0453237e-5,"MEAN_MOTION_DOT":-1.22e-6,"MEAN_MOTION_DDOT":0},{"OBJECT_NAME":"CZ-6A DEB","OBJECT_ID":"2024-140DW","EPOCH":"2026-03-09T12:42:27.831456","MEAN_MOTION":14.74987574,"ECCENTRICITY":0.01550337,"INCLINATION":88.9082,"RA_OF_ASC_NODE":275.4322,"ARG_OF_PERICENTER":135.579,"MEAN_ANOMALY":225.799,"EPHEMERIS_TYPE":0,"CLASSIFICATION_TYPE":"U","NORAD_CAT_ID":60717,"ELEMENT_SET_NO":999,"REV_AT_EPOCH":8391,"BSTAR":0.0030954876,"MEAN_MOTION_DOT":0.00025382,"MEAN_MOTION_DDOT":0}]
